[{"OBJECT_NAME":"GEESAT-3 01","OBJECT_ID":"2024-159A","EPOCH":"2026-03-09T22:55:44.243616","MEAN_MOTION":14.83820553,"ECCENTRICITY":0.00031646,"INCLINATION":49.9988,"RA_OF_ASC_NODE":183.2096,"ARG_OF_PERICENTER":229.1953,"MEAN_ANOMALY":130.8711,"EPHEMERIS_TYPE":0,"CLASSIFICATION_TYPE":"U","NORAD_CAT_ID":61011,"ELEMENT_SET_NO":999,"REV_AT_EPOCH":8194,"BSTAR":0.00046731486,"MEAN_MOTION_DOT":3.69e-5,"MEAN_MOTION_DDOT":0},{"OBJECT_NAME":"SL-14 R\/B","OBJECT_ID":"1984-027B","EPOCH":"2026-03-09T23:05:59.586144","MEAN_MOTION":14.85976757,"ECCENTRICITY":0.00173276,"INCLINATION":82.5387,"RA_OF_ASC_NODE":244.7567,"ARG_OF_PERICENTER":336.9053,"MEAN_ANOMALY":23.1383,"EPHEMERIS_TYPE":0,"CLASSIFICATION_TYPE":"U","NORAD_CAT_ID":14820,"ELEMENT_SET_NO":999,"REV_AT_EPOCH":24767,"BSTAR":7.078419e-5,"MEAN_MOTION_DOT":6.44e-6,"MEAN_MOTION_DDOT":0}]
